IRIDIUM 136             
1 42962U 17061H   24059.93827138  .00000086  00000+0  23532-4 0  9991
2 42962  86.4009  15.9602 0001974  83.1767 276.9653 14.34217669334548
